{
  "type": "FeatureCollection",
  "features": [
    {
      "type": "Feature",
      "properties": {
        "norad_id": 30396,
        "name": "FENGYUN 1C DEB",
        "group": "fengyun-1c-debris",
        "lat": 37.00495719638321,
        "lon": -176.90906398225894,
        "alt_km": 849.2377855097566,
        "timestamp": "2025-12-18T17:50:15.233116+00:00",
        "meta_object_name": "FENGYUN 1C DEB",
        "meta_object_id": "1999-025ADK",
        "meta_epoch": "2025-12-17T20:57:27.156672",
        "meta_mean_motion": 13.87170388,
        "meta_eccentricity": 0.01351583,
        "meta_inclination": 98.2238,
        "meta_ra_of_asc_node": 356.0675,
        "meta_arg_of_pericenter": 115.6176,
        "meta_mean_anomaly": 3.8741,
        "meta_ephemeris_type": 0,
        "meta_classification_type": "U",
        "meta_norad_cat_id": 30396,
        "meta_element_set_no": 999,
        "meta_rev_at_epoch": 95650,
        "meta_bstar": 0.00011661208,
        "meta_mean_motion_dot": 1.12e-06,
        "meta_mean_motion_ddot": 0,
        "tle_line1": "1 30396U 99025ADK 25351.87323098  .00000112  00000+0  11661-3 0  9993",
        "tle_line2": "2 30396  98.2238 356.0675 0135158 115.6176   3.8741 13.87170388956501"
      },
      "geometry": {
        "type": "Point",
        "coordinates": [
          -176.90906398225894,
          37.00495719638321
        ]
      }
    },
    {
      "type": "Feature",
      "properties": {
        "norad_id": 30397,
        "name": "FENGYUN 1C DEB",
        "group": "fengyun-1c-debris",
        "lat": -80.82238926263015,
        "lon": -153.32844092808494,
        "alt_km": 1009.3987485580592,
        "timestamp": "2025-12-18T17:50:15.233126+00:00",
        "meta_object_name": "FENGYUN 1C DEB",
        "meta_object_id": "1999-025ADL",
        "meta_epoch": "2025-12-17T22:15:27.238176",
        "meta_mean_motion": 13.98603603,
        "meta_eccentricity": 0.01496187,
        "meta_inclination": 98.4049,
        "meta_ra_of_asc_node": 139.7034,
        "meta_arg_of_pericenter": 78.0259,
        "meta_mean_anomaly": 50.7915,
        "meta_ephemeris_type": 0,
        "meta_classification_type": "U",
        "meta_norad_cat_id": 30397,
        "meta_element_set_no": 999,
        "meta_rev_at_epoch": 95837,
        "meta_bstar": 0.0008609786,
        "meta_mean_motion_dot": 1.322e-05,
        "meta_mean_motion_ddot": 0,
        "tle_line1": "1 30397U 99025ADL 25351.92739859  .00001322  00000+0  86098-3 0  9996",
        "tle_line2": "2 30397  98.4049 139.7034 0149618  78.0259  50.7915 13.98603603958373"
      },
      "geometry": {
        "type": "Point",
        "coordinates": [
          -153.32844092808494,
          -80.82238926263015
        ]
      }
    },
    {
      "type": "Feature",
      "properties": {
        "norad_id": 30398,
        "name": "FENGYUN 1C DEB",
        "group": "fengyun-1c-debris",
        "lat": -77.03094525726252,
        "lon": 21.3581273466429,
        "alt_km": 855.6402861965744,
        "timestamp": "2025-12-18T17:50:15.233136+00:00",
        "meta_object_name": "FENGYUN 1C DEB",
        "meta_object_id": "1999-025ADM",
        "meta_epoch": "2025-12-17T16:18:45.711072",
        "meta_mean_motion": 13.78703049,
        "meta_eccentricity": 0.01726108,
        "meta_inclination": 99.7143,
        "meta_ra_of_asc_node": 248.3243,
        "meta_arg_of_pericenter": 283.1617,
        "meta_mean_anomaly": 102.9176,
        "meta_ephemeris_type": 0,
        "meta_classification_type": "U",
        "meta_norad_cat_id": 30398,
        "meta_element_set_no": 999,
        "meta_rev_at_epoch": 94825,
        "meta_bstar": 0.00039040642,
        "meta_mean_motion_dot": 3.95e-06,
        "meta_mean_motion_ddot": 0,
        "tle_line1": "1 30398U 99025ADM 25351.67969573  .00000395  00000+0  39041-3 0  9992",
        "tle_line2": "2 30398  99.7143 248.3243 0172610 283.1617 102.9176 13.78703049948255"
      },
      "geometry": {
        "type": "Point",
        "coordinates": [
          21.3581273466429,
          -77.03094525726252
        ]
      }
    },
    {
      "type": "Feature",
      "properties": {
        "norad_id": 30400,
        "name": "FENGYUN 1C DEB",
        "group": "fengyun-1c-debris",
        "lat": 44.8276828364641,
        "lon": -88.84883289365247,
        "alt_km": 841.379855502194,
        "timestamp": "2025-12-18T17:50:15.233146+00:00",
        "meta_object_name": "FENGYUN 1C DEB",
        "meta_object_id": "1999-025ADP",
        "meta_epoch": "2025-12-17T18:05:32.259840",
        "meta_mean_motion": 14.10060838,
        "meta_eccentricity": 0.02266333,
        "meta_inclination": 99.1564,
        "meta_ra_of_asc_node": 279.369,
        "meta_arg_of_pericenter": 321.9564,
        "meta_mean_anomaly": 101.5017,
        "meta_ephemeris_type": 0,
        "meta_classification_type": "U",
        "meta_norad_cat_id": 30400,
        "meta_element_set_no": 999,
        "meta_rev_at_epoch": 95585,
        "meta_bstar": 0.0031751503,
        "meta_mean_motion_dot": 7.079e-05,
        "meta_mean_motion_ddot": 0,
        "tle_line1": "1 30400U 99025ADP 25351.75384560  .00007079  00000+0  31752-2 0  9998",
        "tle_line2": "2 30400  99.1564 279.3690 0226633 321.9564 101.5017 14.10060838955859"
      },
      "geometry": {
        "type": "Point",
        "coordinates": [
          -88.84883289365247,
          44.8276828364641
        ]
      }
    },
    {
      "type": "Feature",
      "properties": {
        "norad_id": 30401,
        "name": "FENGYUN 1C DEB",
        "group": "fengyun-1c-debris",
        "lat": 80.61237775433271,
        "lon": 122.12381667940063,
        "alt_km": 716.9087470140457,
        "timestamp": "2025-12-18T17:50:15.233156+00:00",
        "meta_object_name": "FENGYUN 1C DEB",
        "meta_object_id": "1999-025ADQ",
        "meta_epoch": "2025-12-18T02:16:24.686688",
        "meta_mean_motion": 14.27995493,
        "meta_eccentricity": 0.01080314,
        "meta_inclination": 98.9471,
        "meta_ra_of_asc_node": 229.1156,
        "meta_arg_of_pericenter": 112.0778,
        "meta_mean_anomaly": 249.1915,
        "meta_ephemeris_type": 0,
        "meta_classification_type": "U",
        "meta_norad_cat_id": 30401,
        "meta_element_set_no": 999,
        "meta_rev_at_epoch": 98380,
        "meta_bstar": 0.00011793737,
        "meta_mean_motion_dot": 2.66e-06,
        "meta_mean_motion_ddot": 0,
        "tle_line1": "1 30401U 99025ADQ 25352.09473017  .00000266  00000+0  11794-3 0  9999",
        "tle_line2": "2 30401  98.9471 229.1156 0108031 112.0778 249.1915 14.27995493983805"
      },
      "geometry": {
        "type": "Point",
        "coordinates": [
          122.12381667940063,
          80.61237775433271
        ]
      }
    },
    {
      "type": "Feature",
      "properties": {
        "norad_id": 30403,
        "name": "FENGYUN 1C DEB",
        "group": "fengyun-1c-debris",
        "lat": 52.98066351380319,
        "lon": -96.4575782663377,
        "alt_km": 842.0030893174853,
        "timestamp": "2025-12-18T17:50:15.233166+00:00",
        "meta_object_name": "FENGYUN 1C DEB",
        "meta_object_id": "1999-025ADS",
        "meta_epoch": "2025-12-18T03:44:14.021376",
        "meta_mean_motion": 14.21574534,
        "meta_eccentricity": 0.00744466,
        "meta_inclination": 99.0602,
        "meta_ra_of_asc_node": 70.7235,
        "meta_arg_of_pericenter": 7.0466,
        "meta_mean_anomaly": 353.1739,
        "meta_ephemeris_type": 0,
        "meta_classification_type": "U",
        "meta_norad_cat_id": 30403,
        "meta_element_set_no": 999,
        "meta_rev_at_epoch": 96883,
        "meta_bstar": 0.0015192778,
        "meta_mean_motion_dot": 3.379e-05,
        "meta_mean_motion_ddot": 0,
        "tle_line1": "1 30403U 99025ADS 25352.15571784  .00003379  00000+0  15193-2 0  9992",
        "tle_line2": "2 30403  99.0602  70.7235 0074446   7.0466 353.1739 14.21574534968831"
      },
      "geometry": {
        "type": "Point",
        "coordinates": [
          -96.4575782663377,
          52.98066351380319
        ]
      }
    },
    {
      "type": "Feature",
      "properties": {
        "norad_id": 30404,
        "name": "FENGYUN 1C DEB",
        "group": "fengyun-1c-debris",
        "lat": 70.44326905914454,
        "lon": -66.48447626079958,
        "alt_km": 850.3544005464764,
        "timestamp": "2025-12-18T17:50:15.233177+00:00",
        "meta_object_name": "FENGYUN 1C DEB",
        "meta_object_id": "1999-025ADT",
        "meta_epoch": "2025-12-17T23:19:14.979360",
        "meta_mean_motion": 13.34352849,
        "meta_eccentricity": 0.03760541,
        "meta_inclination": 99.8325,
        "meta_ra_of_asc_node": 83.5521,
        "meta_arg_of_pericenter": 124.0977,
        "meta_mean_anomaly": 239.6433,
        "meta_ephemeris_type": 0,
        "meta_classification_type": "U",
        "meta_norad_cat_id": 30404,
        "meta_element_set_no": 999,
        "meta_rev_at_epoch": 58106,
        "meta_bstar": 0.00066841715,
        "meta_mean_motion_dot": 4.58e-06,
        "meta_mean_motion_ddot": 0,
        "tle_line1": "1 30404U 99025ADT 25351.97170115  .00000458  00000+0  66842-3 0  9998",
        "tle_line2": "2 30404  99.8325  83.5521 0376054 124.0977 239.6433 13.34352849581060"
      },
      "geometry": {
        "type": "Point",
        "coordinates": [
          -66.48447626079958,
          70.44326905914454
        ]
      }
    }
  ]
}